[{"OBJECT_NAME":"STARLINK-35231","OBJECT_ID":"2025-221AC","EPOCH":"2026-03-28T17:50:15.152352","MEAN_MOTION":15.30219633,"ECCENTRICITY":0.0001842,"INCLINATION":53.1626,"RA_OF_ASC_NODE":0.3322,"ARG_OF_PERICENTER":85.4302,"MEAN_ANOMALY":274.6909,"EPHEMERIS_TYPE":0,"CLASSIFICATION_TYPE":"U","NORAD_CAT_ID":65849,"ELEMENT_SET_NO":999,"REV_AT_EPOCH":2899,"BSTAR":0.0013563,"MEAN_MOTION_DOT":0.00040053,"MEAN_MOTION_DDOT":0},{"OBJECT_NAME":"STARLINK-35252","OBJECT_ID":"2025-221AD","EPOCH":"2026-03-28T11:24:55.740096","MEAN_MOTION":15.30239761,"ECCENTRICITY":0.00011905,"INCLINATION":53.1632,"RA_OF_ASC_NODE":1.5055,"ARG_OF_PERICENTER":80.2533,"MEAN_ANOMALY":279.8602,"EPHEMERIS_TYPE":0,"CLASSIFICATION_TYPE":"U","NORAD_CAT_ID":65850,"ELEMENT_SET_NO":999,"REV_AT_EPOCH":2895,"BSTAR":0.0016528281,"MEAN_MOTION_DOT":0.00048976,"MEAN_MOTION_DDOT":0},{"OBJECT_NAME":"STARLINK-35208","OBJECT_ID":"2025-223A","EPOCH":"2026-03-28T14:11:00.254688","MEAN_MOTION":15.30211855,"ECCENTRICITY":0.0001187,"INCLINATION":53.1596,"RA_OF_ASC_NODE":206.0906,"ARG_OF_PERICENTER":91.3604,"MEAN_ANOMALY":268.7533,"EPHEMERIS_TYPE":0,"CLASSIFICATION_TYPE":"U","NORAD_CAT_ID":65854,"ELEMENT_SET_NO":999,"REV_AT_EPOCH":2710,"BSTAR":0.00066409,"MEAN_MOTION_DOT":0.00019368,"MEAN_MOTION_DDOT":0},{"OBJECT_NAME":"STARLINK-35200","OBJECT_ID":"2025-223B","EPOCH":"2026-03-28T19:37:13.879200","MEAN_MOTION":15.30225159,"ECCENTRICITY":0.0001679,"INCLINATION":53.1582,"RA_OF_ASC_NODE":205.3705,"ARG_OF_PERICENTER":33.5648,"MEAN_ANOMALY":326.5459,"EPHEMERIS_TYPE":0,"CLASSIFICATION_TYPE":"U","NORAD_CAT_ID":65855,"ELEMENT_SET_NO":999,"REV_AT_EPOCH":2713,"BSTAR":0.00078768,"MEAN_MOTION_DOT":0.0002306,"MEAN_MOTION_DDOT":0},{"OBJECT_NAME":"STARLINK-35459","OBJECT_ID":"2025-223C","EPOCH":"2026-03-28T19:58:30.230112","MEAN_MOTION":15.30203588,"ECCENTRICITY":0.0001122,"INCLINATION":53.1592,"RA_OF_ASC_NODE":205.4597,"ARG_OF_PERICENTER":75.3305,"MEAN_ANOMALY":284.782,"EPHEMERIS_TYPE":0,"CLASSIFICATION_TYPE":"U","NORAD_CAT_ID":65856,"ELEMENT_SET_NO":999,"REV_AT_EPOCH":2713,"BSTAR":0.0012161,"MEAN_MOTION_DOT":0.00035837,"MEAN_MOTION_DDOT":0},{"OBJECT_NAME":"STARLINK-35489","OBJECT_ID":"2025-223D","EPOCH":"2026-03-28T17:10:09.072192","MEAN_MOTION":15.30221035,"ECCENTRICITY":0.0001176,"INCLINATION":53.1601,"RA_OF_ASC_NODE":206.1507,"ARG_OF_PERICENTER":85.4193,"MEAN_ANOMALY":274.6942,"EPHEMERIS_TYPE":0,"CLASSIFICATION_TYPE":"U","NORAD_CAT_ID":65857,"ELEMENT_SET_NO":999,"REV_AT_EPOCH":2711,"BSTAR":0.00099165,"MEAN_MOTION_DOT":0.00029145,"MEAN_MOTION_DDOT":0},{"OBJECT_NAME":"STARLINK-35199","OBJECT_ID":"2025-223E","EPOCH":"2026-03-28T17:41:54.250944","MEAN_MOTION":15.30191195,"ECCENTRICITY":0.0001033,"INCLINATION":53.1589,"RA_OF_ASC_NODE":205.58,"ARG_OF_PERICENTER":76.7373,"MEAN_ANOMALY":283.3743,"EPHEMERIS_TYPE":0,"CLASSIFICATION_TYPE":"U","NORAD_CAT_ID":65858,"ELEMENT_SET_NO":999,"REV_AT_EPOCH":2712,"BSTAR":0.00094807,"MEAN_MOTION_DOT":0.00027817,"MEAN_MOTION_DDOT":0},{"OBJECT_NAME":"STARLINK-35408","OBJECT_ID":"2025-223F","EPOCH":"2026-03-28T15:34:35.215680","MEAN_MOTION":15.30218207,"ECCENTRICITY":0.0001546,"INCLINATION":53.1599,"RA_OF_ASC_NODE":206.4526,"ARG_OF_PERICENTER":57.4607,"MEAN_ANOMALY":302.6543,"EPHEMERIS_TYPE":0,"CLASSIFICATION_TYPE":"U","NORAD_CAT_ID":65859,"ELEMENT_SET_NO":999,"REV_AT_EPOCH":2710,"BSTAR":0.00079545,"MEAN_MOTION_DOT":0.00023287,"MEAN_MOTION_DDOT":0},{"OBJECT_NAME":"STARLINK-35303","OBJECT_ID":"2025-223G","EPOCH":"2026-03-28T18:15:19.708992","MEAN_MOTION":15.30212403,"ECCENTRICITY":6.78e-5,"INCLINATION":53.1586,"RA_OF_ASC_NODE":205.7249,"ARG_OF_PERICENTER":86.614,"MEAN_ANOMALY":273.4938,"EPHEMERIS_TYPE":0,"CLASSIFICATION_TYPE":"U","NORAD_CAT_ID":65860,"ELEMENT_SET_NO":999,"REV_AT_EPOCH":2712,"BSTAR":0.0010273,"MEAN_MOTION_DOT":0.00030201,"MEAN_MOTION_DDOT":0},{"OBJECT_NAME":"STARLINK-35258","OBJECT_ID":"2025-223H","EPOCH":"2026-03-28T18:21:24.839712","MEAN_MOTION":15.30214075,"ECCENTRICITY":9.84e-5,"INCLINATION":53.1579,"RA_OF_ASC_NODE":205.7491,"ARG_OF_PERICENTER":88.2136,"MEAN_ANOMALY":271.8978,"EPHEMERIS_TYPE":0,"CLASSIFICATION_TYPE":"U","NORAD_CAT_ID":65861,"ELEMENT_SET_NO":999,"REV_AT_EPOCH":2712,"BSTAR":0.0007662,"MEAN_MOTION_DOT":0.00022412,"MEAN_MOTION_DDOT":0},{"OBJECT_NAME":"STARLINK-35386","OBJECT_ID":"2025-223J","EPOCH":"2026-03-28T17:07:07.135392","MEAN_MOTION":15.30211655,"ECCENTRICITY":0.0001272,"INCLINATION":53.159,"RA_OF_ASC_NODE":206.1367,"ARG_OF_PERICENTER":85.6313,"MEAN_ANOMALY":274.4833,"EPHEMERIS_TYPE":0,"CLASSIFICATION_TYPE":"U","NORAD_CAT_ID":65862,"ELEMENT_SET_NO":999,"REV_AT_EPOCH":2711,"BSTAR":0.00069999,"MEAN_MOTION_DOT":0.00020437,"MEAN_MOTION_DDOT":0},{"OBJECT_NAME":"STARLINK-35469","OBJECT_ID":"2025-223K","EPOCH":"2026-03-28T16:59:31.235424","MEAN_MOTION":15.30211257,"ECCENTRICITY":0.0001096,"INCLINATION":53.1606,"RA_OF_ASC_NODE":206.1065,"ARG_OF_PERICENTER":95.0743,"MEAN_ANOMALY":265.0383,"EPHEMERIS_TYPE":0,"CLASSIFICATION_TYPE":"U","NORAD_CAT_ID":65863,"ELEMENT_SET_NO":999,"REV_AT_EPOCH":2711,"BSTAR":0.00082939,"MEAN_MOTION_DOT":0.00024294,"MEAN_MOTION_DDOT":0},{"OBJECT_NAME":"STARLINK-35471","OBJECT_ID":"2025-223L","EPOCH":"2026-03-28T14:23:09.452544","MEAN_MOTION":15.30207629,"ECCENTRICITY":0.0001492,"INCLINATION":53.1593,"RA_OF_ASC_NODE":206.1379,"ARG_OF_PERICENTER":90.3558,"MEAN_ANOMALY":269.7614,"EPHEMERIS_TYPE":0,"CLASSIFICATION_TYPE":"U","NORAD_CAT_ID":65864,"ELEMENT_SET_NO":999,"REV_AT_EPOCH":2710,"BSTAR":0.00079753,"MEAN_MOTION_DOT":0.00023341,"MEAN_MOTION_DDOT":0},{"OBJECT_NAME":"STARLINK-35475","OBJECT_ID":"2025-223M","EPOCH":"2026-03-28T17:16:04.222848","MEAN_MOTION":15.30213974,"ECCENTRICITY":0.0001263,"INCLINATION":53.1584,"RA_OF_ASC_NODE":205.4647,"ARG_OF_PERICENTER":74.7659,"MEAN_ANOMALY":285.3481,"EPHEMERIS_TYPE":0,"CLASSIFICATION_TYPE":"U","NORAD_CAT_ID":65865,"ELEMENT_SET_NO":999,"REV_AT_EPOCH":2712,"BSTAR":0.00081264,"MEAN_MOTION_DOT":0.00023796,"MEAN_MOTION_DDOT":0},{"OBJECT_NAME":"STARLINK-35312","OBJECT_ID":"2025-223N","EPOCH":"2026-03-28T16:56:28.647168","MEAN_MOTION":15.30217565,"ECCENTRICITY":0.0001106,"INCLINATION":53.1587,"RA_OF_ASC_NODE":206.0918,"ARG_OF_PERICENTER":79.9042,"MEAN_ANOMALY":280.2083,"EPHEMERIS_TYPE":0,"CLASSIFICATION_TYPE":"U","NORAD_CAT_ID":65866,"ELEMENT_SET_NO":999,"REV_AT_EPOCH":2711,"BSTAR":0.00073449,"MEAN_MOTION_DOT":0.00021469,"MEAN_MOTION_DDOT":0},{"OBJECT_NAME":"STARLINK-35456","OBJECT_ID":"2025-223P","EPOCH":"2026-03-28T17:43:25.426272","MEAN_MOTION":15.30195502,"ECCENTRICITY":0.0001313,"INCLINATION":53.1585,"RA_OF_ASC_NODE":205.5819,"ARG_OF_PERICENTER":70.712,"MEAN_ANOMALY":289.4023,"EPHEMERIS_TYPE":0,"CLASSIFICATION_TYPE":"U","NORAD_CAT_ID":65867,"ELEMENT_SET_NO":999,"REV_AT_EPOCH":2712,"BSTAR":0.0012518,"MEAN_MOTION_DOT":0.00036893,"MEAN_MOTION_DDOT":0},{"OBJECT_NAME":"STARLINK-35450","OBJECT_ID":"2025-223Q","EPOCH":"2026-03-28T18:19:54.842880","MEAN_MOTION":15.30214953,"ECCENTRICITY":0.000152,"INCLINATION":53.1599,"RA_OF_ASC_NODE":205.7406,"ARG_OF_PERICENTER":83.5455,"MEAN_ANOMALY":276.5719,"EPHEMERIS_TYPE":0,"CLASSIFICATION_TYPE":"U","NORAD_CAT_ID":65868,"ELEMENT_SET_NO":999,"REV_AT_EPOCH":2712,"BSTAR":0.0012151,"MEAN_MOTION_DOT":0.0003582,"MEAN_MOTION_DDOT":0},{"OBJECT_NAME":"STARLINK-35441","OBJECT_ID":"2025-223R","EPOCH":"2026-03-28T16:54:56.773728","MEAN_MOTION":15.30200109,"ECCENTRICITY":7.54e-5,"INCLINATION":53.159,"RA_OF_ASC_NODE":206.0855,"ARG_OF_PERICENTER":102.5655,"MEAN_ANOMALY":257.543,"EPHEMERIS_TYPE":0,"CLASSIFICATION_TYPE":"U","NORAD_CAT_ID":65869,"ELEMENT_SET_NO":999,"REV_AT_EPOCH":2711,"BSTAR":-0.00049713,"MEAN_MOTION_DOT":-0.00015053,"MEAN_MOTION_DDOT":0},{"OBJECT_NAME":"STARLINK-35433","OBJECT_ID":"2025-223S","EPOCH":"2026-03-28T17:37:20.726688","MEAN_MOTION":15.3020697,"ECCENTRICITY":0.000139,"INCLINATION":53.1591,"RA_OF_ASC_NODE":205.5584,"ARG_OF_PERICENTER":77.1472,"MEAN_ANOMALY":282.9684,"EPHEMERIS_TYPE":0,"CLASSIFICATION_TYPE":"U","NORAD_CAT_ID":65870,"ELEMENT_SET_NO":999,"REV_AT_EPOCH":2713,"BSTAR":0.0014642,"MEAN_MOTION_DOT":0.00043268,"MEAN_MOTION_DDOT":0},{"OBJECT_NAME":"STARLINK-35465","OBJECT_ID":"2025-223T","EPOCH":"2026-03-28T19:29:38.032800","MEAN_MOTION":15.30203031,"ECCENTRICITY":8.23e-5,"INCLINATION":53.1574,"RA_OF_ASC_NODE":205.3314,"ARG_OF_PERICENTER":62.659,"MEAN_ANOMALY":297.4495,"EPHEMERIS_TYPE":0,"CLASSIFICATION_TYPE":"U","NORAD_CAT_ID":65871,"ELEMENT_SET_NO":999,"REV_AT_EPOCH":2713,"BSTAR":0.0012393,"MEAN_MOTION_DOT":0.00036529,"MEAN_MOTION_DDOT":0},{"OBJECT_NAME":"STARLINK-34108","OBJECT_ID":"2025-223U","EPOCH":"2026-03-28T14:27:43.184160","MEAN_MOTION":15.30201694,"ECCENTRICITY":0.0001439,"INCLINATION":53.1593,"RA_OF_ASC_NODE":206.1574,"ARG_OF_PERICENTER":93.1359,"MEAN_ANOMALY":266.9806,"EPHEMERIS_TYPE":0,"CLASSIFICATION_TYPE":"U","NORAD_CAT_ID":65872,"ELEMENT_SET_NO":999,"REV_AT_EPOCH":2710,"BSTAR":0.0011749,"MEAN_MOTION_DOT":0.00034601,"MEAN_MOTION_DDOT":0},{"OBJECT_NAME":"STARLINK-35423","OBJECT_ID":"2025-223V","EPOCH":"2026-03-28T17:20:37.614048","MEAN_MOTION":15.30211828,"ECCENTRICITY":0.0001214,"INCLINATION":53.1587,"RA_OF_ASC_NODE":205.4834,"ARG_OF_PERICENTER":87.6895,"MEAN_ANOMALY":272.4244,"EPHEMERIS_TYPE":0,"CLASSIFICATION_TYPE":"U","NORAD_CAT_ID":65873,"ELEMENT_SET_NO":999,"REV_AT_EPOCH":2712,"BSTAR":0.00057204,"MEAN_MOTION_DOT":0.00016627,"MEAN_MOTION_DDOT":0},{"OBJECT_NAME":"STARLINK-35425","OBJECT_ID":"2025-223W","EPOCH":"2026-03-28T18:13:49.009728","MEAN_MOTION":15.30214683,"ECCENTRICITY":0.0001221,"INCLINATION":53.1577,"RA_OF_ASC_NODE":205.7146,"ARG_OF_PERICENTER":65.2618,"MEAN_ANOMALY":294.8509,"EPHEMERIS_TYPE":0,"CLASSIFICATION_TYPE":"U","NORAD_CAT_ID":65874,"ELEMENT_SET_NO":999,"REV_AT_EPOCH":2712,"BSTAR":0.00077583,"MEAN_MOTION_DOT":0.00022699,"MEAN_MOTION_DDOT":0}]
